BADR-4                  
1 29526U 06051A   26155.74309133  .00000167  00000+0  00000+0 0  9997
2 29526   1.9707  81.2738 0007892 161.5231 306.4291  1.00450212 51145
NAVSTAR 59 (USA 192)    
1 29601U 06052A   26156.45220274  .00000037  00000+0  00000+0 0  9995
2 29601  54.9360 214.4715 0085351  90.7498 270.3097  2.00557585143171
WILDBLUE-1              
1 29643U 06054A   26156.61244911 -.00000037  00000+0  00000+0 0  9996
2 29643   2.7727  80.6281 0001679 351.4725 291.2147  1.00272715 53678
THEMIS A                
1 30580U 07004A   26155.99064321 -.00000240  00000+0 -22139-1 0  9995
2 30580   8.2168 110.7843 8370544 196.7880  87.6844  0.87843998 41173
THEMIS D                
1 30797U 07004D   26152.23771525 -.00000298  00000+0  00000+0 0  9993
2 30797   7.5391  81.1709 8334955 228.5222 291.6035  0.87589139 40931
THEMIS E                
1 30798U 07004E   26156.39380390 -.00000193  00000+0  00000+0 0  9995
2 30798   6.2293  98.8695 8442656 213.2934 313.5488  0.88041996 65812
ANIK F3                 
1 31102U 07009A   26156.61097578  .00000012  00000+0  00000+0 0  9997
2 31102   1.1669  83.9882 0002812 350.5245 280.7544  1.00270979 46440
SAUDISAT 3              
1 31118U 07012B   26156.42628424  .00000324  00000+0  60586-4 0  9993
2 31118  98.1451 106.8196 0013251 264.7052  95.2643 14.71418542 26018
SAUDICOMSAT 7           
1 31119U 07012C   26156.71521824  .00000560  00000+0  10950-3 0  9993
2 31119  98.3772 130.6125 0054618 231.6357 127.9932 14.66098882 20751
SAUDICOMSAT 6           
1 31121U 07012E   26156.73362917  .00000784  00000+0  15917-3 0  9990
2 31121  98.4092 124.0376 0071888   3.5786 356.5914 14.62543462 18511
SAUDICOMSAT 5           
1 31124U 07012H   26156.70463786  .00000634  00000+0  11755-3 0  9996
2 31124  98.3484 131.3515 0047794 160.2308 200.0762 14.68142711 21914
SAUDICOMSAT 3           
1 31125U 07012J   26156.41299626  .00000963  00000+0  16492-3 0  9993
2 31125  98.3138 131.6035 0040507  89.2367 271.3479 14.70685866 23094
GALAXY 17 (G-17)        
1 31307U 07016B   26156.54638637 -.00000194  00000+0  00000+0 0  9993
2 31307   2.9422  80.0469 0004948  12.2302 273.4062  1.00272836 69689
YAOGAN-2                
1 31490U 07019A   26156.48081433  .00000866  00000+0  11440-3 0  9997
2 31490  98.2658  16.6892 0019553 314.4674  45.4938 14.82658323 25889
GLOBALSTAR M069         
1 31573U 07020C   26156.66115977 -.00000048  00000+0  41039-3 0  9992
2 31573  52.0040 284.7490 0002550 124.6168 249.2922 12.23470970877395
GLOBALSTAR M072         
1 31574U 07020D   26156.66942316 -.00000089  00000+0 -65163-4 0  9999
2 31574  51.9904 130.9082 0001366 299.5825 231.8572 11.91658402873608
TERRASAR-X              
1 31698U 07026A   26155.67675039  .00000882  00000+0  45172-4 0  9994
2 31698  97.4453 163.5606 0001619  90.1175 270.0246 15.19148915 51324
INTELSAT 11 (IS-11)     
1 32253U 07044B   26156.66939475 -.00000166  00000+0  00000+0 0  9991
2 32253   3.5350  78.8086 0001716  76.7099 155.9709  0.99053683 68332
WGS F1 (USA 195)        
1 32258U 07046A   26156.48346558 -.00000255  00000+0  00000+0 0  9991
2 32258   0.0485  93.9114 0000598 326.4041 325.1689  1.00271527 52217
